#dP2023  5 20 18  0  0.00000000      96 __u+U ITR00 EXT  IAC
## 2262 583200.00000000   900.00000000 60084 0.7500000000000
+  118   C06C07C08C09C10C11C12C13C14C16C19C20C21C22C23C24C25
+        C26C27C28C29C30C32C33C34C35C36C37C38C39C40C41C42C43
+        C44C45C46E02E03E04E05E07E08E09E10E11E12E13E14E15E18
+        E19E21E24E25E26E27E30E31E33E34E36G01G02G03G04G05G06
+        G07G08G09G10G11G12G13G14G15G16G17G18G19G21G22G23G24
+        G25G26G27G28G29G30G31G32J02J03J04R01R02R03R04R05R07
+        R08R09R11R12R13R14R15R16R17R18R19R20R21R22R24R25  0
++         9  9 11 11  9  9 10 12  8  9  8  9  9  8  7  8  9
++         8  8  9  7  8  9  7  7  9  7  8  9 10  8  8  9  7
++         9  7  8  6  7  6  7  7  7  7  7  7  8  8  8  6  7
++         6  8  7  7  7  7  8  8  9  7  7  6  6  7  6  8  7
++         6  6  6  8  7  6  6  9  7  6  7  6  7  7  6  7  6
++         7  7  9  7  8  6  6  7  9  9 10  7  7  9  7  8  7
++         9  8  9  7  8 10 10  7  7  8  8  8  6  8  7  8  0
%c M  cc GPS ccc cccc cccc cccc cccc ccccc ccccc ccccc ccccc
%c cc cc ccc ccc cccc cccc cccc cccc ccccc ccccc ccccc ccccc
%f  0.0000000  0.000000000  0.00000000000  0.000000000000000
%f  0.0000000  0.000000000  0.00000000000  0.000000000000000
%i    0    0    0    0      0      0      0      0         0
%i    0    0    0    0      0      0      0      0         0
/* IAC                                ULTRA-RAPID PREDICTION
/* S/V CLOCKS ARE ALIGNED TO GNSS TIME                      
/* G:C1WC2W R:C1PC2P E:C1XC5X C:C2IC6I J:C1CC2S             
/* PCV:IGS20_2247 OL/AL:FES2004  NONE     YN ORB:CoN CLK:CoN
*  2023 05 21  2 15  0.00000000
PC06  -4307.046728  39248.739397 -14385.561864   -189.110454
PC07  -9168.417093  25848.882985  32062.449945    -49.816394
PC08 -19751.389372  31810.534980 -19570.452962    480.582205
PC09   1507.154530  41557.054912  -4452.607115    629.887731
PC10    980.537426  27963.413414  31907.556556    -63.837422
PC11 -16350.684855 -17538.365094  14320.105996    630.391568
PC12  -7747.468055 -26624.054469  -3082.209126    653.804876
PC13 -12608.924188  31972.895454 -24454.648008    279.094577
PC14 -24627.138260  -9635.606636   8828.198928    289.307204
PC16  -6358.954782  37463.514862 -17715.609622     71.495851
PC19  27675.681490   3682.663317    449.865955   -912.555365
PC20  19193.403705  13297.348730 -15295.575511    555.199728
PC21   1725.127656 -15635.886373  23067.987249   -916.261130
PC22  20677.414588  -8499.410223  16726.124163   -478.699102
PC23 -20396.994884  17756.540962  -6878.884103   -934.111300
PC24  -6638.940063 -16547.482831 -21472.105848    -30.725040
PC25 -19557.614459   2330.018758 -19783.833211    130.697104
PC26   8200.258707 -24207.911639 -11176.893871   -123.232120
PC27   1773.290958  25638.966034  10834.999953    143.212665
PC28 -10639.129493  14163.576926  21562.139190    106.029331
PC29  18193.182155   6899.156414 -20013.246685    123.128584
PC30  14286.221401  23292.297232  -5623.678831     -0.430614
PC32  -1629.739503  15640.512659 -23035.343947   -559.433870
PC33 -27657.746475  -3599.944090   -307.138700   -884.081712
PC34 -14868.733889 -22620.193651   6813.494166    175.222296
PC35  10629.442199 -13932.804298 -21741.416872    623.554742
PC36  19309.947019  -1096.111157  20139.661193   -429.745235
PC37  -9721.921106  24114.488658  10176.622433   -784.097942
PC38 -24331.158961  32568.660792 -11422.176055     79.717246
PC39  -7933.182243  34585.999042 -22560.303913     -3.021517
PC40 -12972.427159  19634.987336  34955.359491    -23.815712
PC41 -21148.082963   8195.911365 -16193.057132   -939.740203
PC42 -17938.605540 -13825.787917  16328.833955   -683.169158
PC43 -18343.081147  -7833.198953  19511.554901     22.367599
PC44  -2498.845879 -25551.030544 -10995.100603    112.985051
PC45  20250.063976 -18063.633190   6470.998044   -100.182672
PC46   7794.895280  15349.950949  21969.457913    -55.558653
PE02  28428.473029  -6106.432410   5502.923196     39.328231
PE03  23094.162222   2556.965860  18351.428711    -18.443569
PE04  -9558.708712  14154.290151 -24162.211399   -126.849147
PE05  23336.419490  18145.219070   1599.276974    -65.551297
PE07  -9658.725773 -22893.420903  16088.474429    -46.610096
PE08   9746.958070 -13834.419165  24291.745200    -86.268736
PE09   9636.185946  22788.725070 -16251.506620    -21.858398
PE10  -6445.060058  28803.042220   2227.318908   -535.237318
PE11    384.304418  28421.263231  -8244.084841   1986.068093
PE12 -11822.404570  24632.983339  11348.428998   -547.124852
PE13    128.393729 -28641.758048   7492.277789    -19.202279
PE14 -19130.128081 -13045.536715   5473.538414    231.000867
PE15  11910.577226 -24454.807446 -11687.364153    -23.322993
PE18  26911.813434  11365.089883 -14031.734160     87.879324
PE19 -23932.963685  -5119.685074 -16633.746111  -2486.355612
PE21 -20376.740768  -7373.143427 -20166.670007   -530.296817
PE24   -780.270178  17630.255493  23751.746542   -110.147038
PE25  20104.793641   7605.958650  20352.716251   -605.405990
PE26 -12061.740886 -15288.033791  22291.388051    110.259608
PE27   -118.420416 -17397.224942 -23946.565330    -54.568960
PE30  20476.155540 -16863.983055 -13135.293829   -189.619358
PE31 -19998.875879  17077.051352  13591.590584   -524.191014
PE33 -16567.041262   5850.002669  23816.304230   -444.195878
PE34  16568.155171  -6058.485715 -23778.873262    -46.511093
PE36  11587.072351  15991.959539 -22048.628960    -59.175819
PG01 -13554.608844  17712.580785  13806.735772    183.841821
PG02 -14063.321702  -7859.645028  21767.214271   -594.107531
PG03 -21331.869087  13028.248939  -8930.093081   -297.107522
PG04 -11461.560843   9998.103861 -21764.241137     46.780067
PG05  25335.397549  -3896.891490  -7362.201546   -127.984611
PG06   6590.175833  19658.850381 -16481.917445    587.787003
PG07  -5852.799127  25623.331576   -181.501477    173.145414
PG08 -19944.913428   -882.454079  17635.480052   -123.427701
PG09  -1155.824856  17643.986365 -19876.599360   -154.289143
PG10  -7104.708911 -13301.247830  22061.759087    -37.770489
PG11  14153.437051   5437.840855 -21801.781010   -204.443394
PG12  23548.466826 -10402.046694  -6630.609451   -378.556814
PG13  20445.812751   9766.129597  13847.868117    522.830959
PG14   3478.999348  15085.433106  21590.129764     63.795437
PG15  19799.467863  -1983.342663  17257.826668     41.413004
PG16 -24869.741597  -1637.222637 -10109.563289   -499.201920
PG17  11408.495803  21820.030349  10248.674629    715.544251
PG18   4401.642526 -25974.576157   2634.700202   -274.790347
PG19  17117.970220  20482.704963   1086.000701    319.658545
PG21 -15331.119528   8670.964069  20161.423984    153.699671
PG22 -18584.917456 -19040.905003   -989.605849    484.744552
PG23   6584.720617 -16481.342403  19714.540054     25.912528
PG24  14340.873986 -14115.263260  16766.232684   -196.168107
PG25  14324.386790 -16288.519787 -15461.074473    444.263921
PG26 -17217.487217  -8129.604322 -18765.918947    240.516058
PG27 -22207.486188 -11440.900564   9353.774756     33.174382
PG28  -6649.510235 -21027.357218 -14828.029687     79.236441
PG29   5075.359464 -15402.290320 -21072.965590   -600.155961
PG30   1810.696595  24508.528057   9836.381846   -516.007086
PG31 -12496.229783 -10958.449578 -20805.372597   -216.524519
PG32 -14866.204238 -20755.383879   7868.714403   -481.451870
PJ02 -30561.629712  26528.117079  16752.146809     -0.062968
PJ03 -26795.079031  26002.631880  24637.356100      4.587075
PJ04 -31078.116611  19638.351814 -15432.429266     94.672343
PR01  20468.358242  -1234.347175  15190.168422     57.888476
PR02   4143.754905 -10035.611434  23129.621966    -22.805651
PR03 -13872.813576 -13171.705054  16953.473511     78.202317
PR04 -23788.081478  -9083.070777   1624.243626    187.985962
PR05 -20900.665522   -130.822655 -14620.237048    112.887058
PR07  14555.744583  13089.617350 -16283.133352     56.326166
PR08  23894.300794   8790.579353  -1260.543189    -70.881463
PR09 -13146.024726  19184.251208  10404.065218    121.307805
PR11  14063.211974    887.928319  21277.683224    -60.450032
PR12  20412.228709 -13418.290351   7348.919355     27.440035
PR13  14695.561701 -18965.105746  -8676.304404    -35.258293
PR14   -931.780680 -13321.929840 -21724.465388     24.685166
PR15 -14897.302522    -79.545438 -20683.762561     89.247244
PR16 -20268.485879  13433.075713  -7639.068328     14.766033
PR17  -6886.736504 -24048.886295   4895.759218    631.783634
PR18 -11032.224400 -13164.158644  18889.318776     82.549280
PR19 -10034.815262   2833.971711  23272.259085   -233.347180
PR20  -2676.846355  21633.636074  13211.485661    -93.182063
PR21   7300.059456  23603.080148  -6400.468046     -9.035260
PR22  11017.472480  12540.120472 -19260.434149     81.219715
PR24   1871.052174 -22125.057084 -12535.613397    172.129479
PR25   5774.832968  24406.056010  -4707.347621     61.648447
EOF
